AEROCUBE 6B             
1 40046U 14033AN  26087.72591805  .00008113  00000+0  67357-3 0  9998
2 40046  97.7122 255.2448 0036968 275.3956  84.3049 14.98496234634701
CANX-4                  
1 40055U 14034C   26088.16789137  .00001336  00000+0  17925-3 0  9991
2 40055  98.3243 320.4996 0011509 268.7139  91.2753 14.81110235632688
CANX-5                  
1 40056U 14034D   26088.16724375  .00001348  00000+0  18073-3 0  9993
2 40056  98.3246 320.5378 0011514 268.9679  91.0213 14.81127134623498
UKUBE-1                 
1 40074U 14037F   26087.94151692  .00012061  00000+0  70240-3 0  9995
2 40074  98.4237  82.8709 0003157  82.6195 277.5392 15.12193364636422
BRITE-PL2 (HEWELIUSZ)   
1 40119U 14049B   26088.22695406  .00002800  00000+0  26582-3 0  9996
2 40119  97.8994 199.6730 0014331  19.9571 340.2206 14.94279142629504
AEROCUBE 5C             
1 40965U 15058B   26088.16416072  .00003050  00000+0  27711-3 0  9992
2 40965  64.7672 151.4474 0129858  94.7385 266.8570 14.90989408353729
AEROCUBE 7              
1 40966U 15058C   26088.18362629  .00004297  00000+0  35300-3 0  9990
2 40966  64.7618 135.2788 0119779  93.6467 267.8354 14.95066814353990
FOX-1A (AO-85)          
1 40967U 15058D   26088.18533543  .00003313  00000+0  30458-3 0  9993
2 40967  64.7757 167.5097 0128424  88.0848 273.4966 14.90493359101642
SINOD-D 1               
1 40968U 15058E   26088.17084885  .00004421  00000+0  36360-3 0  9992
2 40968  64.7753 149.3624 0116847  85.1490 276.2954 14.95235015104694
SNAP-3 ALICE            
1 40970U 15058G   26088.18730784  .00104108  00000+0  20095-2 0  9992
2 40970  64.7567  17.4523 0034871  61.9468 298.5190 15.46576008104467
LMRST-SAT               
1 40971U 15058H   26088.18769815  .00003197  00000+0  29592-3 0  9998
2 40971  64.7761 163.6915 0130446  90.0774 271.5286 14.90123806101636
SNAP-3 EDDIE            
1 40972U 15058J   26088.17101009  .00113861  00000+0  21103-2 0  9992
2 40972  64.7496   8.7780 0035790  67.1324 293.3588 15.47663501106594
PROPCUBE 3              
1 40973U 15058K   26088.21622020  .00003701  00000+0  31530-3 0  9996
2 40973  64.7680 142.2842 0122836  91.7353 269.7834 14.93683057102850
BISONSAT                
1 40974U 15058L   26088.11072282  .00016189  00000+0  82420-3 0  9993
2 40974  64.7589  72.1799 0078671  82.3698 278.6352 15.14262728103482
SNAP-3 JIMI             
1 40975U 15058M   26088.21652789  .00006626  00000+0  46785-3 0  9990
2 40975  64.7640 112.6208 0104920  88.2547 273.0583 15.01359610102219
PROPCUBE 1 (FLORA)      
1 40976U 15058N   26088.20384230  .00003508  00000+0  33543-3 0  9997
2 40976  64.7753 183.0356 0129432  92.3713 269.2223 14.88778134104352
SINOD-D 3               
1 40977U 15058P   26088.16644317  .00004562  00000+0  39253-3 0  9993
2 40977  64.7729 165.5759 0117827  90.1536 271.3079 14.93394969102809
