[{"OBJECT_NAME":"AEROCUBE 6B","OBJECT_ID":"2014-033AN","EPOCH":"2026-03-28T17:25:19.319520","MEAN_MOTION":14.98496234,"ECCENTRICITY":0.00369687,"INCLINATION":97.7122,"RA_OF_ASC_NODE":255.2448,"ARG_OF_PERICENTER":275.3956,"MEAN_ANOMALY":84.3049,"EPHEMERIS_TYPE":0,"CLASSIFICATION_TYPE":"U","NORAD_CAT_ID":40046,"ELEMENT_SET_NO":999,"REV_AT_EPOCH":63470,"BSTAR":0.00067357181,"MEAN_MOTION_DOT":8.113e-5,"MEAN_MOTION_DDOT":0},{"OBJECT_NAME":"CANX-4","OBJECT_ID":"2014-034C","EPOCH":"2026-03-29T04:01:45.814368","MEAN_MOTION":14.81110235,"ECCENTRICITY":0.0011509,"INCLINATION":98.3243,"RA_OF_ASC_NODE":320.4996,"ARG_OF_PERICENTER":268.7139,"MEAN_ANOMALY":91.2753,"EPHEMERIS_TYPE":0,"CLASSIFICATION_TYPE":"U","NORAD_CAT_ID":40055,"ELEMENT_SET_NO":999,"REV_AT_EPOCH":63268,"BSTAR":0.00017925,"MEAN_MOTION_DOT":1.336e-5,"MEAN_MOTION_DDOT":0},{"OBJECT_NAME":"CANX-5","OBJECT_ID":"2014-034D","EPOCH":"2026-03-29T04:00:49.860000","MEAN_MOTION":14.81127134,"ECCENTRICITY":0.0011514,"INCLINATION":98.3246,"RA_OF_ASC_NODE":320.5378,"ARG_OF_PERICENTER":268.9679,"MEAN_ANOMALY":91.0213,"EPHEMERIS_TYPE":0,"CLASSIFICATION_TYPE":"U","NORAD_CAT_ID":40056,"ELEMENT_SET_NO":999,"REV_AT_EPOCH":62349,"BSTAR":0.00018073,"MEAN_MOTION_DOT":1.348e-5,"MEAN_MOTION_DDOT":0},{"OBJECT_NAME":"UKUBE-1","OBJECT_ID":"2014-037F","EPOCH":"2026-03-28T22:35:47.061888","MEAN_MOTION":15.12193364,"ECCENTRICITY":0.0003157,"INCLINATION":98.4237,"RA_OF_ASC_NODE":82.8709,"ARG_OF_PERICENTER":82.6195,"MEAN_ANOMALY":277.5392,"EPHEMERIS_TYPE":0,"CLASSIFICATION_TYPE":"U","NORAD_CAT_ID":40074,"ELEMENT_SET_NO":999,"REV_AT_EPOCH":63642,"BSTAR":0.0007024,"MEAN_MOTION_DOT":0.00012061,"MEAN_MOTION_DDOT":0},{"OBJECT_NAME":"BRITE-PL2 (HEWELIUSZ)","OBJECT_ID":"2014-049B","EPOCH":"2026-03-29T05:26:48.830784","MEAN_MOTION":14.94279142,"ECCENTRICITY":0.0014331,"INCLINATION":97.8994,"RA_OF_ASC_NODE":199.673,"ARG_OF_PERICENTER":19.9571,"MEAN_ANOMALY":340.2206,"EPHEMERIS_TYPE":0,"CLASSIFICATION_TYPE":"U","NORAD_CAT_ID":40119,"ELEMENT_SET_NO":999,"REV_AT_EPOCH":62950,"BSTAR":0.00026582,"MEAN_MOTION_DOT":2.8e-5,"MEAN_MOTION_DDOT":0},{"OBJECT_NAME":"AEROCUBE 5C","OBJECT_ID":"2015-058B","EPOCH":"2026-03-29T03:56:23.486208","MEAN_MOTION":14.90989408,"ECCENTRICITY":0.0129858,"INCLINATION":64.7672,"RA_OF_ASC_NODE":151.4474,"ARG_OF_PERICENTER":94.7385,"MEAN_ANOMALY":266.857,"EPHEMERIS_TYPE":0,"CLASSIFICATION_TYPE":"U","NORAD_CAT_ID":40965,"ELEMENT_SET_NO":999,"REV_AT_EPOCH":35372,"BSTAR":0.00027711,"MEAN_MOTION_DOT":3.05e-5,"MEAN_MOTION_DDOT":0},{"OBJECT_NAME":"AEROCUBE 7","OBJECT_ID":"2015-058C","EPOCH":"2026-03-29T04:24:25.311456","MEAN_MOTION":14.95066814,"ECCENTRICITY":0.0119779,"INCLINATION":64.7618,"RA_OF_ASC_NODE":135.2788,"ARG_OF_PERICENTER":93.6467,"MEAN_ANOMALY":267.8354,"EPHEMERIS_TYPE":0,"CLASSIFICATION_TYPE":"U","NORAD_CAT_ID":40966,"ELEMENT_SET_NO":999,"REV_AT_EPOCH":35399,"BSTAR":0.000353,"MEAN_MOTION_DOT":4.297e-5,"MEAN_MOTION_DDOT":0},{"OBJECT_NAME":"FOX-1A (AO-85)","OBJECT_ID":"2015-058D","EPOCH":"2026-03-29T04:26:52.981152","MEAN_MOTION":14.90493359,"ECCENTRICITY":0.0128424,"INCLINATION":64.7757,"RA_OF_ASC_NODE":167.5097,"ARG_OF_PERICENTER":88.0848,"MEAN_ANOMALY":273.4966,"EPHEMERIS_TYPE":0,"CLASSIFICATION_TYPE":"U","NORAD_CAT_ID":40967,"ELEMENT_SET_NO":999,"REV_AT_EPOCH":10164,"BSTAR":0.00030458,"MEAN_MOTION_DOT":3.313e-5,"MEAN_MOTION_DDOT":0},{"OBJECT_NAME":"SINOD-D 1","OBJECT_ID":"2015-058E","EPOCH":"2026-03-29T04:06:01.340640","MEAN_MOTION":14.95235015,"ECCENTRICITY":0.0116847,"INCLINATION":64.7753,"RA_OF_ASC_NODE":149.3624,"ARG_OF_PERICENTER":85.149,"MEAN_ANOMALY":276.2954,"EPHEMERIS_TYPE":0,"CLASSIFICATION_TYPE":"U","NORAD_CAT_ID":40968,"ELEMENT_SET_NO":999,"REV_AT_EPOCH":10469,"BSTAR":0.0003636,"MEAN_MOTION_DOT":4.421e-5,"MEAN_MOTION_DDOT":0},{"OBJECT_NAME":"SNAP-3 ALICE","OBJECT_ID":"2015-058G","EPOCH":"2026-03-29T04:29:43.397376","MEAN_MOTION":15.46576008,"ECCENTRICITY":0.0034871,"INCLINATION":64.7567,"RA_OF_ASC_NODE":17.4523,"ARG_OF_PERICENTER":61.9468,"MEAN_ANOMALY":298.519,"EPHEMERIS_TYPE":0,"CLASSIFICATION_TYPE":"U","NORAD_CAT_ID":40970,"ELEMENT_SET_NO":999,"REV_AT_EPOCH":10446,"BSTAR":0.0020095,"MEAN_MOTION_DOT":0.00104108,"MEAN_MOTION_DDOT":0},{"OBJECT_NAME":"LMRST-SAT","OBJECT_ID":"2015-058H","EPOCH":"2026-03-29T04:30:17.120160","MEAN_MOTION":14.90123806,"ECCENTRICITY":0.0130446,"INCLINATION":64.7761,"RA_OF_ASC_NODE":163.6915,"ARG_OF_PERICENTER":90.0774,"MEAN_ANOMALY":271.5286,"EPHEMERIS_TYPE":0,"CLASSIFICATION_TYPE":"U","NORAD_CAT_ID":40971,"ELEMENT_SET_NO":999,"REV_AT_EPOCH":10163,"BSTAR":0.00029592,"MEAN_MOTION_DOT":3.197e-5,"MEAN_MOTION_DDOT":0},{"OBJECT_NAME":"SNAP-3 EDDIE","OBJECT_ID":"2015-058J","EPOCH":"2026-03-29T04:06:15.271776","MEAN_MOTION":15.47663501,"ECCENTRICITY":0.003579,"INCLINATION":64.7496,"RA_OF_ASC_NODE":8.778,"ARG_OF_PERICENTER":67.1324,"MEAN_ANOMALY":293.3588,"EPHEMERIS_TYPE":0,"CLASSIFICATION_TYPE":"U","NORAD_CAT_ID":40972,"ELEMENT_SET_NO":999,"REV_AT_EPOCH":10659,"BSTAR":0.0021103,"MEAN_MOTION_DOT":0.00113861,"MEAN_MOTION_DDOT":0},{"OBJECT_NAME":"PROPCUBE 3","OBJECT_ID":"2015-058K","EPOCH":"2026-03-29T05:11:21.425280","MEAN_MOTION":14.93683057,"ECCENTRICITY":0.0122836,"INCLINATION":64.768,"RA_OF_ASC_NODE":142.2842,"ARG_OF_PERICENTER":91.7353,"MEAN_ANOMALY":269.7834,"EPHEMERIS_TYPE":0,"CLASSIFICATION_TYPE":"U","NORAD_CAT_ID":40973,"ELEMENT_SET_NO":999,"REV_AT_EPOCH":10285,"BSTAR":0.0003153,"MEAN_MOTION_DOT":3.701e-5,"MEAN_MOTION_DDOT":0},{"OBJECT_NAME":"BISONSAT","OBJECT_ID":"2015-058L","EPOCH":"2026-03-29T02:39:26.451648","MEAN_MOTION":15.14262728,"ECCENTRICITY":0.0078671,"INCLINATION":64.7589,"RA_OF_ASC_NODE":72.1799,"ARG_OF_PERICENTER":82.3698,"MEAN_ANOMALY":278.6352,"EPHEMERIS_TYPE":0,"CLASSIFICATION_TYPE":"U","NORAD_CAT_ID":40974,"ELEMENT_SET_NO":999,"REV_AT_EPOCH":10348,"BSTAR":0.0008242,"MEAN_MOTION_DOT":0.00016189,"MEAN_MOTION_DDOT":0},{"OBJECT_NAME":"SNAP-3 JIMI","OBJECT_ID":"2015-058M","EPOCH":"2026-03-29T05:11:48.009696","MEAN_MOTION":15.0135961,"ECCENTRICITY":0.010492,"INCLINATION":64.764,"RA_OF_ASC_NODE":112.6208,"ARG_OF_PERICENTER":88.2547,"MEAN_ANOMALY":273.0583,"EPHEMERIS_TYPE":0,"CLASSIFICATION_TYPE":"U","NORAD_CAT_ID":40975,"ELEMENT_SET_NO":999,"REV_AT_EPOCH":10221,"BSTAR":0.00046785,"MEAN_MOTION_DOT":6.626e-5,"MEAN_MOTION_DDOT":0},{"OBJECT_NAME":"PROPCUBE 1 (FLORA)","OBJECT_ID":"2015-058N","EPOCH":"2026-03-29T04:53:31.974720","MEAN_MOTION":14.88778134,"ECCENTRICITY":0.0129432,"INCLINATION":64.7753,"RA_OF_ASC_NODE":183.0356,"ARG_OF_PERICENTER":92.3713,"MEAN_ANOMALY":269.2223,"EPHEMERIS_TYPE":0,"CLASSIFICATION_TYPE":"U","NORAD_CAT_ID":40976,"ELEMENT_SET_NO":999,"REV_AT_EPOCH":10435,"BSTAR":0.00033543,"MEAN_MOTION_DOT":3.508e-5,"MEAN_MOTION_DDOT":0},{"OBJECT_NAME":"SINOD-D 3","OBJECT_ID":"2015-058P","EPOCH":"2026-03-29T03:59:40.689888","MEAN_MOTION":14.93394969,"ECCENTRICITY":0.0117827,"INCLINATION":64.7729,"RA_OF_ASC_NODE":165.5759,"ARG_OF_PERICENTER":90.1536,"MEAN_ANOMALY":271.3079,"EPHEMERIS_TYPE":0,"CLASSIFICATION_TYPE":"U","NORAD_CAT_ID":40977,"ELEMENT_SET_NO":999,"REV_AT_EPOCH":10280,"BSTAR":0.00039253,"MEAN_MOTION_DOT":4.562e-5,"MEAN_MOTION_DDOT":0}]
